start=new Date('2022-08-27T00:00:00.000Z').valueOf();
sats=[{"OBJECT_TYPE":"PAYLOAD","ECCENTRICITY":"0.00014660","CENTER_NAME":"EARTH","APOAPSIS":"548.220","CLASSIFICATION_TYPE":"U","EPOCH":"2022-08-26T17:48:29.019456","REF_FRAME":"TEME","MEAN_MOTION":"15.06402836","PERIOD":"95.592","ELEMENT_SET_NO":"999","TIME_SYSTEM":"UTC","MEAN_ELEMENT_THEORY":"SGP4","FILE":"3548471","DECAY_DATE":null,"SITE":"AFETR","MEAN_ANOMALY":"277.9732","TLE_LINE2":"2 47625  53.0536 106.8952 0001466  82.1423 277.9732 15.06402836 84897","MEAN_MOTION_DDOT":"0.0000000000000","RA_OF_ASC_NODE":"106.8952","EPHEMERIS_TYPE":"0","GP_ID":"211052746","NORAD_CAT_ID":"47625","INCLINATION":"53.0536","OBJECT_NAME":"STARLINK-1704","MEAN_MOTION_DOT":"0.00001598","SEMIMAJOR_AXIS":"6925.340","ARG_OF_PERICENTER":"82.1423","COUNTRY_CODE":"US","TLE_LINE1":"1 47625U 21012F   22238.74200254  .00001598  00000-0  12613-3 0  9990","BSTAR":"0.00012613000000","LAUNCH_DATE":"2021-02-16","RCS_SIZE":"LARGE","PERIAPSIS":"546.190","OBJECT_ID":"2021-012F","REV_AT_EPOCH":"8489"},{"NORAD_CAT_ID":"47626","OBJECT_NAME":"STARLINK-1761","INCLINATION":"53.0539","MEAN_MOTION_DOT":"-0.00000249","SEMIMAJOR_AXIS":"6925.345","TLE_LINE2":"2 47626  53.0539 109.9590 0001763  70.4400 289.6780 15.06401017 85308","MEAN_MOTION_DDOT":"0.0000000000000","RA_OF_ASC_NODE":"109.9590","EPHEMERIS_TYPE":"0","GP_ID":"211048081","RCS_SIZE":"LARGE","PERIAPSIS":"545.990","OBJECT_ID":"2021-012G","REV_AT_EPOCH":"8530","ARG_OF_PERICENTER":"70.4400","COUNTRY_CODE":"US","TLE_LINE1":"1 47626U 21012G   22238.06473903 -.00000249  00000-0  21565-5 0  9990","BSTAR":"0.00000215650000","LAUNCH_DATE":"2021-02-16","CLASSIFICATION_TYPE":"U","EPOCH":"2022-08-26T01:33:13.452192","MEAN_MOTION":"15.06401017","REF_FRAME":"TEME","ECCENTRICITY":"0.00017630","OBJECT_TYPE":"PAYLOAD","CENTER_NAME":"EARTH","APOAPSIS":"548.431","MEAN_ELEMENT_THEORY":"SGP4","FILE":"3548418","DECAY_DATE":null,"SITE":"AFETR","MEAN_ANOMALY":"289.6780","PERIOD":"95.592","ELEMENT_SET_NO":"999","TIME_SYSTEM":"UTC"},{"OBJECT_TYPE":"PAYLOAD","ECCENTRICITY":"0.00017820","APOAPSIS":"548.465","CENTER_NAME":"EARTH","EPOCH":"2022-08-26T20:54:58.006080","CLASSIFICATION_TYPE":"U","REF_FRAME":"TEME","MEAN_MOTION":"15.06394192","ELEMENT_SET_NO":"999","PERIOD":"95.593","TIME_SYSTEM":"UTC","MEAN_ELEMENT_THEORY":"SGP4","MEAN_ANOMALY":"292.7978","FILE":"3548620","DECAY_DATE":null,"SITE":"AFETR","TLE_LINE2":"2 47627  53.0580  11.3219 0001782  67.3199 292.7978 15.06394192 86737","GP_ID":"211077606","EPHEMERIS_TYPE":"0","RA_OF_ASC_NODE":"11.3219","MEAN_MOTION_DDOT":"0.0000000000000","NORAD_CAT_ID":"47627","SEMIMAJOR_AXIS":"6925.366","MEAN_MOTION_DOT":"0.00001255","OBJECT_NAME":"STARLINK-1972","INCLINATION":"53.0580","TLE_LINE1":"1 47627U 21012H   22238.87150470  .00001255  00000-0  10317-3 0  9999","COUNTRY_CODE":"US","ARG_OF_PERICENTER":"67.3199","LAUNCH_DATE":"2021-02-16","BSTAR":"0.00010317000000","PERIAPSIS":"545.997","OBJECT_ID":"2021-012H","REV_AT_EPOCH":"8673","RCS_SIZE":"LARGE"},{"BSTAR":"0.00006506400000","LAUNCH_DATE":"2021-02-16","COUNTRY_CODE":"US","TLE_LINE1":"1 47628U 21012J   22238.89682346  .00000688  00000-0  65064-4 0  9993","ARG_OF_PERICENTER":"82.6243","PERIAPSIS":"546.027","OBJECT_ID":"2021-012J","REV_AT_EPOCH":"8543","RCS_SIZE":"LARGE","GP_ID":"211076862","MEAN_MOTION_DDOT":"0.0000000000000","RA_OF_ASC_NODE":"106.2062","EPHEMERIS_TYPE":"0","TLE_LINE2":"2 47628  53.0537 106.2062 0001680  82.6243 277.4937 15.06407534 85433","MEAN_MOTION_DOT":"0.00000688","SEMIMAJOR_AXIS":"6925.325","OBJECT_NAME":"STARLINK-1973","INCLINATION":"53.0537","NORAD_CAT_ID":"47628","TIME_SYSTEM":"UTC","ELEMENT_SET_NO":"999","PERIOD":"95.592","FILE":"3548620","SITE":"AFETR","DECAY_DATE":null,"MEAN_ANOMALY":"277.4937","MEAN_ELEMENT_THEORY":"SGP4","APOAPSIS":"548.354","CENTER_NAME":"EARTH","ECCENTRICITY":"0.00016800","OBJECT_TYPE":"PAYLOAD","REF_FRAME":"TEME","MEAN_MOTION":"15.06407534","EPOCH":"2022-08-26T21:31:25.546944","CLASSIFICATION_TYPE":"U"},{"GP_ID":"211077112","RA_OF_ASC_NODE":"347.1981","EPHEMERIS_TYPE":"0","MEAN_MOTION_DDOT":"0.0000000000000","TLE_LINE2":"2 47629  53.0563 347.1981 0001225  85.0352 275.0777 15.06401209 87062","SEMIMAJOR_AXIS":"6925.345","MEAN_MOTION_DOT":"0.00001926","INCLINATION":"53.0563","OBJECT_NAME":"STARLINK-1974","NORAD_CAT_ID":"47629","LAUNCH_DATE":"2021-02-16","BSTAR":"0.00014814000000","COUNTRY_CODE":"US","TLE_LINE1":"1 47629U 21012K   22238.68028650  .00001926  00000-0  14814-3 0  9995","ARG_OF_PERICENTER":"85.0352","PERIAPSIS":"546.361","OBJECT_ID":"2021-012K","REV_AT_EPOCH":"8706","RCS_SIZE":"LARGE","APOAPSIS":"548.058","CENTER_NAME":"EARTH","ECCENTRICITY":"0.00012250","OBJECT_TYPE":"PAYLOAD","MEAN_MOTION":"15.06401209","REF_FRAME":"TEME","EPOCH":"2022-08-26T16:19:36.753600","CLASSIFICATION_TYPE":"U","TIME_SYSTEM":"UTC","ELEMENT_SET_NO":"999","PERIOD":"95.592","MEAN_ANOMALY":"275.0777","FILE":"3548620","SITE":"AFETR","DECAY_DATE":null,"MEAN_ELEMENT_THEORY":"SGP4"},{"NORAD_CAT_ID":"47630","INCLINATION":"53.0556","OBJECT_NAME":"STARLINK-1983","SEMIMAJOR_AXIS":"6925.338","MEAN_MOTION_DOT":"0.00000676","TLE_LINE2":"2 47630  53.0556  86.2789 0001636  78.4493 281.6679 15.06403454 85696","RA_OF_ASC_NODE":"86.2789","EPHEMERIS_TYPE":"0","MEAN_MOTION_DDOT":"0.0000000000000","GP_ID":"211077363","RCS_SIZE":"LARGE","PERIAPSIS":"546.070","OBJECT_ID":"2021-012L","REV_AT_EPOCH":"8569","ARG_OF_PERICENTER":"78.4493","TLE_LINE1":"1 47630U 21012L   22238.90329867  .00000676  00000-0  64263-4 0  9991","COUNTRY_CODE":"US","LAUNCH_DATE":"2021-02-16","BSTAR":"0.00006426300000","CLASSIFICATION_TYPE":"U","EPOCH":"2022-08-26T21:40:45.005088","MEAN_MOTION":"15.06403454","REF_FRAME":"TEME","ECCENTRICITY":"0.00016360","OBJECT_TYPE":"PAYLOAD","CENTER_NAME":"EARTH","APOAPSIS":"548.336","MEAN_ELEMENT_THEORY":"SGP4","MEAN_ANOMALY":"281.6679","FILE":"3548620","DECAY_DATE":null,"SITE":"AFETR","PERIOD":"95.592","ELEMENT_SET_NO":"999","TIME_SYSTEM":"UTC"},{"ECCENTRICITY":"0.00014070","OBJECT_TYPE":"PAYLOAD","APOAPSIS":"548.201","CENTER_NAME":"EARTH","EPOCH":"2022-08-26T18:19:40.747584","CLASSIFICATION_TYPE":"U","MEAN_MOTION":"15.06395842","REF_FRAME":"TEME","ELEMENT_SET_NO":"999","PERIOD":"95.592","TIME_SYSTEM":"UTC","MEAN_ELEMENT_THEORY":"SGP4","MEAN_ANOMALY":"278.0173","FILE":"3548472","DECAY_DATE":null,"SITE":"AFETR","TLE_LINE2":"2 47632  53.0555  11.8160 0001407  82.0976 278.0173 15.06395842 86227","GP_ID":"211052347","RA_OF_ASC_NODE":"11.8160","EPHEMERIS_TYPE":"0","MEAN_MOTION_DDOT":"0.0000000000000","NORAD_CAT_ID":"47632","SEMIMAJOR_AXIS":"6925.361","MEAN_MOTION_DOT":"0.00000197","INCLINATION":"53.0555","OBJECT_NAME":"STARLINK-1992","COUNTRY_CODE":"US","TLE_LINE1":"1 47632U 21012N   22238.76366606  .00000197  00000-0  32148-4 0  9994","ARG_OF_PERICENTER":"82.0976","LAUNCH_DATE":"2021-02-16","BSTAR":"0.00003214800000","PERIAPSIS":"546.252","OBJECT_ID":"2021-012N","REV_AT_EPOCH":"8622","RCS_SIZE":"LARGE"},{"TIME_SYSTEM":"UTC","ELEMENT_SET_NO":"999","PERIOD":"95.593","MEAN_ANOMALY":"291.4781","SITE":"AFETR","FILE":"3548620","DECAY_DATE":null,"MEAN_ELEMENT_THEORY":"SGP4","APOAPSIS":"548.308","CENTER_NAME":"EARTH","OBJECT_TYPE":"PAYLOAD","ECCENTRICITY":"0.00015500","MEAN_MOTION":"15.06393188","REF_FRAME":"TEME","EPOCH":"2022-08-26T21:57:57.892032","CLASSIFICATION_TYPE":"U","LAUNCH_DATE":"2021-02-16","BSTAR":"-0.00000125910000","TLE_LINE1":"1 47633U 21012P   22238.91525338 -.00000300  00000-0 -12591-5 0  9990","COUNTRY_CODE":"US","ARG_OF_PERICENTER":"68.6374","OBJECT_ID":"2021-012P","PERIAPSIS":"546.161","REV_AT_EPOCH":"8545","RCS_SIZE":"LARGE","GP_ID":"211076362","RA_OF_ASC_NODE":"106.1582","EPHEMERIS_TYPE":"0","MEAN_MOTION_DDOT":"0.0000000000000","TLE_LINE2":"2 47633  53.0550 106.1582 0001550  68.6374 291.4781 15.06393188 85459","SEMIMAJOR_AXIS":"6925.369","MEAN_MOTION_DOT":"-0.00000300","OBJECT_NAME":"STARLINK-2009","INCLINATION":"53.0550","NORAD_CAT_ID":"47633"},{"NORAD_CAT_ID":"47634","MEAN_MOTION_DOT":"0.00003921","SEMIMAJOR_AXIS":"6925.319","OBJECT_NAME":"STARLINK-2010","INCLINATION":"53.0540","TLE_LINE2":"2 47634  53.0540 107.4354 0001581  80.8257 279.2911 15.06409786 85383","GP_ID":"211076612","MEAN_MOTION_DDOT":"0.0000000000000","RA_OF_ASC_NODE":"107.4354","EPHEMERIS_TYPE":"0","PERIAPSIS":"546.089","OBJECT_ID":"2021-012Q","REV_AT_EPOCH":"8538","RCS_SIZE":"LARGE","TLE_LINE1":"1 47634U 21012Q   22238.62500091  .00003921  00000-0  28189-3 0  9996","COUNTRY_CODE":"US","ARG_OF_PERICENTER":"80.8257","BSTAR":"0.00028189000000","LAUNCH_DATE":"2021-02-16","EPOCH":"2022-08-26T15:00:00.078624","CLASSIFICATION_TYPE":"U","REF_FRAME":"TEME","MEAN_MOTION":"15.06409786","ECCENTRICITY":"0.00015810","OBJECT_TYPE":"PAYLOAD","APOAPSIS":"548.278","CENTER_NAME":"EARTH","MEAN_ELEMENT_THEORY":"SGP4","DECAY_DATE":null,"FILE":"3548620","SITE":"AFETR","MEAN_ANOMALY":"279.2911","ELEMENT_SET_NO":"999","PERIOD":"95.592","TIME_SYSTEM":"UTC"},{"EPOCH":"2022-08-26T10:49:52.149792","CLASSIFICATION_TYPE":"U","REF_FRAME":"TEME","MEAN_MOTION":"15.06402628","ECCENTRICITY":"0.00012640","OBJECT_TYPE":"PAYLOAD","APOAPSIS":"548.081","CENTER_NAME":"EARTH","MEAN_ELEMENT_THEORY":"SGP4","MEAN_ANOMALY":"273.8415","DECAY_DATE":null,"FILE":"3548147","SITE":"AFETR","ELEMENT_SET_NO":"999","PERIOD":"95.592","TIME_SYSTEM":"UTC","NORAD_CAT_ID":"47635","SEMIMAJOR_AXIS":"6925.341","MEAN_MOTION_DOT":"-0.00000352","OBJECT_NAME":"STARLINK-2012","INCLINATION":"53.0579","TLE_LINE2":"2 47635  53.0579  13.2186 0001264  86.2718 273.8415 15.06402628 86178","GP_ID":"211019770","EPHEMERIS_TYPE":"0","RA_OF_ASC_NODE":"13.2186","MEAN_MOTION_DDOT":"0.0000000000000","PERIAPSIS":"546.330","OBJECT_ID":"2021-012R","REV_AT_EPOCH":"8617","RCS_SIZE":"LARGE","COUNTRY_CODE":"US","TLE_LINE1":"1 47635U 21012R   22238.45129803 -.00000352  00000-0 -47193-5 0  9991","ARG_OF_PERICENTER":"86.2718","LAUNCH_DATE":"2021-02-16","BSTAR":"-0.00000471930000"}];
